ONEWEB-0525             
1 54143U 22138AG  24065.55579967  .00000020  00000+0  18143-4 0  9995
2 54143  87.9130 110.9167 0002102  86.2992 273.8381 13.19725854 66877
ONEWEB-0526             
1 54144U 22138AH  24065.58896791 -.00000004  00000+0 -43523-4 0  9990
2 54144  87.9128 110.9072 0001919  91.8885 268.2467 13.19725679 66854
ONEWEB-0529             
1 54145U 22138AJ  24065.59212397  .00000011  00000+0 -40297-5 0  9999
2 54145  87.9134 110.9139 0002024  84.6171 275.5193 13.19725765 66877
ONEWEB-0531             
1 54146U 22138AK  24065.52901864  .00000072  00000+0  14420-3 0  9990
2 54146  87.9128  80.3437 0001323 126.5626 233.5629 13.20772266 69268
ONEWEB-0535             
1 54147U 22138AL  24065.54948207  .00000091  00000+0  19615-3 0  9997
2 54147  87.9129 110.9138 0002006 106.2171 253.9182 13.19725312 66880
ONEWEB-0536             
1 54148U 22138AM  24065.59215199  .00000322  00000+0  76120-3 0  9991
2 54148  87.9127  80.3813 0002044 123.4011 236.7318 13.20770659 69266
GSLV R/B                
1 54149U 22138AN  24065.44525092  .00003694  00000+0  37892-3 0  9990
2 54149  87.3784  51.6097 0021454 290.8227  69.0703 14.90012526 74338
ONEWEB-0527             
1 54642U 22166A   24065.45113156  .00000052  00000+0  94675-4 0  9992
2 54642  87.9231  49.9336 0001794  83.8420 276.2919 13.21825549 61398
